[{"OBJECT_NAME":"SAPPHIRE","OBJECT_ID":"2013-009C","EPOCH":"2026-03-05T06:51:13.329216","MEAN_MOTION":14.35206768,"ECCENTRICITY":0.00109384,"INCLINATION":98.4217,"RA_OF_ASC_NODE":246.218,"ARG_OF_PERICENTER":192.8286,"MEAN_ANOMALY":167.2623,"EPHEMERIS_TYPE":0,"CLASSIFICATION_TYPE":"U","NORAD_CAT_ID":39088,"ELEMENT_SET_NO":999,"REV_AT_EPOCH":68167,"BSTAR":0.00010655737,"MEAN_MOTION_DOT":2.62e-6,"MEAN_MOTION_DDOT":0},{"OBJECT_NAME":"PRAETORIAN SDA_602","OBJECT_ID":"2025-203A","EPOCH":"2026-03-05T05:39:06.288480","MEAN_MOTION":13.8433426,"ECCENTRICITY":0.00075003,"INCLINATION":81.301,"RA_OF_ASC_NODE":107.0685,"ARG_OF_PERICENTER":113.5144,"MEAN_ANOMALY":246.6802,"EPHEMERIS_TYPE":0,"CLASSIFICATION_TYPE":"U","NORAD_CAT_ID":65565,"ELEMENT_SET_NO":999,"REV_AT_EPOCH":2431,"BSTAR":0.00022392447,"MEAN_MOTION_DOT":2.62e-6,"MEAN_MOTION_DDOT":0},{"OBJECT_NAME":"PRAETORIAN SDA_603","OBJECT_ID":"2025-203B","EPOCH":"2026-03-05T05:30:27.488448","MEAN_MOTION":13.83903901,"ECCENTRICITY":0.00108514,"INCLINATION":81.2999,"RA_OF_ASC_NODE":106.9133,"ARG_OF_PERICENTER":113.4238,"MEAN_ANOMALY":246.8061,"EPHEMERIS_TYPE":0,"CLASSIFICATION_TYPE":"U","NORAD_CAT_ID":65566,"ELEMENT_SET_NO":999,"REV_AT_EPOCH":2432,"BSTAR":0.00030560691,"MEAN_MOTION_DOT":3.51e-6,"MEAN_MOTION_DDOT":0},{"OBJECT_NAME":"PRAETORIAN SDA_604","OBJECT_ID":"2025-203C","EPOCH":"2026-03-05T06:09:53.547264","MEAN_MOTION":13.83033634,"ECCENTRICITY":0.00067197,"INCLINATION":81.3027,"RA_OF_ASC_NODE":107.141,"ARG_OF_PERICENTER":118.4868,"MEAN_ANOMALY":241.6966,"EPHEMERIS_TYPE":0,"CLASSIFICATION_TYPE":"U","NORAD_CAT_ID":65567,"ELEMENT_SET_NO":999,"REV_AT_EPOCH":2431,"BSTAR":4.552445e-5,"MEAN_MOTION_DOT":6.2e-7,"MEAN_MOTION_DDOT":0},{"OBJECT_NAME":"PRAETORIAN SDA_605","OBJECT_ID":"2025-203D","EPOCH":"2026-03-05T06:05:06.499680","MEAN_MOTION":13.83528215,"ECCENTRICITY":0.00095085,"INCLINATION":81.2989,"RA_OF_ASC_NODE":106.9134,"ARG_OF_PERICENTER":109.0988,"MEAN_ANOMALY":251.1198,"EPHEMERIS_TYPE":0,"CLASSIFICATION_TYPE":"U","NORAD_CAT_ID":65568,"ELEMENT_SET_NO":999,"REV_AT_EPOCH":2432,"BSTAR":5.4461704e-5,"MEAN_MOTION_DOT":7.2e-7,"MEAN_MOTION_DDOT":0},{"OBJECT_NAME":"PRAETORIAN SDA_606","OBJECT_ID":"2025-203E","EPOCH":"2026-03-05T05:44:18.170880","MEAN_MOTION":13.83531791,"ECCENTRICITY":0.00071135,"INCLINATION":81.3027,"RA_OF_ASC_NODE":107.1153,"ARG_OF_PERICENTER":109.7053,"MEAN_ANOMALY":250.4871,"EPHEMERIS_TYPE":0,"CLASSIFICATION_TYPE":"U","NORAD_CAT_ID":65569,"ELEMENT_SET_NO":999,"REV_AT_EPOCH":2431,"BSTAR":0.00025589747,"MEAN_MOTION_DOT":2.94e-6,"MEAN_MOTION_DDOT":0},{"OBJECT_NAME":"PRAETORIAN SDA_607","OBJECT_ID":"2025-203F","EPOCH":"2026-03-05T05:42:11.299392","MEAN_MOTION":13.84465006,"ECCENTRICITY":0.00100659,"INCLINATION":81.3011,"RA_OF_ASC_NODE":106.9329,"ARG_OF_PERICENTER":112.3761,"MEAN_ANOMALY":247.8463,"EPHEMERIS_TYPE":0,"CLASSIFICATION_TYPE":"U","NORAD_CAT_ID":65570,"ELEMENT_SET_NO":999,"REV_AT_EPOCH":2432,"BSTAR":0.00022499205,"MEAN_MOTION_DOT":2.64e-6,"MEAN_MOTION_DDOT":0},{"OBJECT_NAME":"PRAETORIAN SDA_608","OBJECT_ID":"2025-203G","EPOCH":"2026-03-05T06:01:00.307200","MEAN_MOTION":13.838862,"ECCENTRICITY":0.00071273,"INCLINATION":81.298,"RA_OF_ASC_NODE":107.0379,"ARG_OF_PERICENTER":118.0775,"MEAN_ANOMALY":242.1103,"EPHEMERIS_TYPE":0,"CLASSIFICATION_TYPE":"U","NORAD_CAT_ID":65571,"ELEMENT_SET_NO":999,"REV_AT_EPOCH":2431,"BSTAR":5.1222605e-5,"MEAN_MOTION_DOT":6.9e-7,"MEAN_MOTION_DDOT":0},{"OBJECT_NAME":"PRAETORIAN SDA_609","OBJECT_ID":"2025-203H","EPOCH":"2026-03-05T05:12:32.192928","MEAN_MOTION":13.84314637,"ECCENTRICITY":0.00081883,"INCLINATION":81.3024,"RA_OF_ASC_NODE":107.0775,"ARG_OF_PERICENTER":112.1805,"MEAN_ANOMALY":248.0222,"EPHEMERIS_TYPE":0,"CLASSIFICATION_TYPE":"U","NORAD_CAT_ID":65572,"ELEMENT_SET_NO":999,"REV_AT_EPOCH":2431,"BSTAR":0.00020954578,"MEAN_MOTION_DOT":2.46e-6,"MEAN_MOTION_DDOT":0},{"OBJECT_NAME":"PRAETORIAN SDA_610","OBJECT_ID":"2025-203J","EPOCH":"2026-03-05T05:38:18.223296","MEAN_MOTION":13.84010547,"ECCENTRICITY":0.00077827,"INCLINATION":81.2982,"RA_OF_ASC_NODE":107.0187,"ARG_OF_PERICENTER":113.557,"MEAN_ANOMALY":246.6405,"EPHEMERIS_TYPE":0,"CLASSIFICATION_TYPE":"U","NORAD_CAT_ID":65573,"ELEMENT_SET_NO":999,"REV_AT_EPOCH":2431,"BSTAR":6.3329953e-5,"MEAN_MOTION_DOT":8.2e-7,"MEAN_MOTION_DDOT":0},{"OBJECT_NAME":"PRAETORIAN SDA_611","OBJECT_ID":"2025-203K","EPOCH":"2026-03-05T04:34:11.272800","MEAN_MOTION":13.83295863,"ECCENTRICITY":0.00069767,"INCLINATION":81.2982,"RA_OF_ASC_NODE":107.131,"ARG_OF_PERICENTER":121.5731,"MEAN_ANOMALY":238.6107,"EPHEMERIS_TYPE":0,"CLASSIFICATION_TYPE":"U","NORAD_CAT_ID":65574,"ELEMENT_SET_NO":999,"REV_AT_EPOCH":2430,"BSTAR":-0.00054769282,"MEAN_MOTION_DOT":-5.89e-6,"MEAN_MOTION_DDOT":0},{"OBJECT_NAME":"PRAETORIAN SDA_612","OBJECT_ID":"2025-203L","EPOCH":"2026-03-05T03:58:06.668544","MEAN_MOTION":13.85043744,"ECCENTRICITY":0.00105018,"INCLINATION":81.3,"RA_OF_ASC_NODE":106.9949,"ARG_OF_PERICENTER":113.7682,"MEAN_ANOMALY":246.4578,"EPHEMERIS_TYPE":0,"CLASSIFICATION_TYPE":"U","NORAD_CAT_ID":65575,"ELEMENT_SET_NO":999,"REV_AT_EPOCH":2431,"BSTAR":0.00026335499,"MEAN_MOTION_DOT":3.1e-6,"MEAN_MOTION_DDOT":0},{"OBJECT_NAME":"PRAETORIAN SDA_613","OBJECT_ID":"2025-203M","EPOCH":"2026-03-05T05:44:56.828832","MEAN_MOTION":13.82987504,"ECCENTRICITY":0.00072065,"INCLINATION":81.2973,"RA_OF_ASC_NODE":107.0252,"ARG_OF_PERICENTER":116.2452,"MEAN_ANOMALY":243.9445,"EPHEMERIS_TYPE":0,"CLASSIFICATION_TYPE":"U","NORAD_CAT_ID":65576,"ELEMENT_SET_NO":999,"REV_AT_EPOCH":2431,"BSTAR":0.00029950771,"MEAN_MOTION_DOT":3.39e-6,"MEAN_MOTION_DDOT":0},{"OBJECT_NAME":"PRAETORIAN SDA_614","OBJECT_ID":"2025-203N","EPOCH":"2026-03-05T04:58:22.996704","MEAN_MOTION":13.84765119,"ECCENTRICITY":0.00083893,"INCLINATION":81.2986,"RA_OF_ASC_NODE":107.0081,"ARG_OF_PERICENTER":111.6537,"MEAN_ANOMALY":248.5514,"EPHEMERIS_TYPE":0,"CLASSIFICATION_TYPE":"U","NORAD_CAT_ID":65577,"ELEMENT_SET_NO":999,"REV_AT_EPOCH":2432,"BSTAR":6.1003112e-5,"MEAN_MOTION_DOT":8.1e-7,"MEAN_MOTION_DDOT":0},{"OBJECT_NAME":"PRAETORIAN SDA_615","OBJECT_ID":"2025-203P","EPOCH":"2026-03-05T05:32:07.761696","MEAN_MOTION":13.844222,"ECCENTRICITY":0.00102738,"INCLINATION":81.2995,"RA_OF_ASC_NODE":106.8846,"ARG_OF_PERICENTER":111.9305,"MEAN_ANOMALY":248.2945,"EPHEMERIS_TYPE":0,"CLASSIFICATION_TYPE":"U","NORAD_CAT_ID":65578,"ELEMENT_SET_NO":999,"REV_AT_EPOCH":2432,"BSTAR":0.00025231999,"MEAN_MOTION_DOT":2.94e-6,"MEAN_MOTION_DDOT":0},{"OBJECT_NAME":"PRAETORIAN SDA_616","OBJECT_ID":"2025-203Q","EPOCH":"2026-03-05T04:33:04.753440","MEAN_MOTION":13.83297051,"ECCENTRICITY":0.00065773,"INCLINATION":81.3037,"RA_OF_ASC_NODE":107.2134,"ARG_OF_PERICENTER":121.3317,"MEAN_ANOMALY":238.8484,"EPHEMERIS_TYPE":0,"CLASSIFICATION_TYPE":"U","NORAD_CAT_ID":65579,"ELEMENT_SET_NO":999,"REV_AT_EPOCH":2430,"BSTAR":0.00022817927,"MEAN_MOTION_DOT":2.62e-6,"MEAN_MOTION_DDOT":0}]
