SAPPHIRE                
1 39088U 13009C   26064.28557094  .00000262  00000+0  10656-3 0  9999
2 39088  98.4217 246.2180 0010938 192.8286 167.2623 14.35206768681678
PRAETORIAN SDA_602      
1 65565U 25203A   26064.23548945  .00000262  00000+0  22392-3 0  9997
2 65565  81.3010 107.0685 0007500 113.5144 246.6802 13.84334260 24312
PRAETORIAN SDA_603      
1 65566U 25203B   26064.22948482  .00000351  00000+0  30561-3 0  9993
2 65566  81.2999 106.9133 0010851 113.4238 246.8061 13.83903901 24323
PRAETORIAN SDA_604      
1 65567U 25203C   26064.25686976  .00000062  00000+0  45524-4 0  9999
2 65567  81.3027 107.1410 0006719 118.4868 241.6966 13.83033634 24313
PRAETORIAN SDA_605      
1 65568U 25203D   26064.25354745  .00000072  00000+0  54462-4 0  9998
2 65568  81.2989 106.9134 0009508 109.0988 251.1198 13.83528215 24326
PRAETORIAN SDA_606      
1 65569U 25203E   26064.23909920  .00000294  00000+0  25590-3 0  9993
2 65569  81.3027 107.1153 0007113 109.7053 250.4871 13.83531791 24317
PRAETORIAN SDA_607      
1 65570U 25203F   26064.23763078  .00000264  00000+0  22499-3 0  9999
2 65570  81.3011 106.9329 0010065 112.3761 247.8463 13.84465006 24324
PRAETORIAN SDA_608      
1 65571U 25203G   26064.25069800  .00000069  00000+0  51223-4 0  9995
2 65571  81.2980 107.0379 0007127 118.0775 242.1103 13.83886200 24319
PRAETORIAN SDA_609      
1 65572U 25203H   26064.21703927  .00000246  00000+0  20955-3 0  9991
2 65572  81.3024 107.0775 0008188 112.1805 248.0222 13.84314637 24315
PRAETORIAN SDA_610      
1 65573U 25203J   26064.23493314  .00000082  00000+0  63330-4 0  9993
2 65573  81.2982 107.0187 0007782 113.5570 246.6405 13.84010547 24318
PRAETORIAN SDA_611      
1 65574U 25203K   26064.19040825 -.00000589  00000+0 -54769-3 0  9993
2 65574  81.2982 107.1310 0006976 121.5731 238.6107 13.83295863 24304
PRAETORIAN SDA_612      
1 65575U 25203L   26064.16535496  .00000310  00000+0  26335-3 0  9992
2 65575  81.3000 106.9949 0010501 113.7682 246.4578 13.85043744 24310
PRAETORIAN SDA_613      
1 65576U 25203M   26064.23954663  .00000339  00000+0  29951-3 0  9990
2 65576  81.2973 107.0252 0007206 116.2452 243.9445 13.82987504 24312
PRAETORIAN SDA_614      
1 65577U 25203N   26064.20721061  .00000081  00000+0  61003-4 0  9991
2 65577  81.2986 107.0081 0008389 111.6537 248.5514 13.84765119 24320
PRAETORIAN SDA_615      
1 65578U 25203P   26064.23064539  .00000294  00000+0  25232-3 0  9994
2 65578  81.2995 106.8846 0010273 111.9305 248.2945 13.84422200 24324
PRAETORIAN SDA_616      
1 65579U 25203Q   26064.18963835  .00000262  00000+0  22818-3 0  9998
2 65579  81.3037 107.2134 0006577 121.3317 238.8484 13.83297051 24302
